STARLINK-36092          
1 66869U 25281X   25351.25001157 -.01574424  00000+0 -10476-1 0  9997
2 66869  43.0009  94.4927 0001647 274.4632 137.3959 15.77580607  2155
STARLINK-36114          
1 66870U 25281Y   25351.25001157 -.01538781  00000+0 -10300-1 0  9991
2 66870  43.0005  94.4865 0001764 266.0907 148.1822 15.77373280  2028
STARLINK-36095          
1 66871U 25281Z   25351.25001157 -.01507049  00000+0 -10156-1 0  9994
2 66871  43.0008  94.4805 0001688 270.5578 146.1034 15.77159822  2156
STARLINK-36082          
1 66872U 25281AA  25351.25001157 -.01508743  00000+0 -10206-1 0  9993
2 66872  43.0008  94.4750 0001570 267.9299 150.8224 15.77081350  2025
STARLINK-36128          
1 66873U 25281AB  25351.25001157 -.01620154  00000+0 -11011-1 0  9990
2 66873  43.0004  94.4583 0001628 269.5363 155.7526 15.76708895  2152
STARLINK-36129          
1 66874U 25281AC  25351.25001157 -.01491695  00000+0 -10145-1 0  9994
2 66874  43.0005  94.4694 0001893 268.7887 152.2450 15.76923405  2157
STARLINK-36053          
1 66875U 25281AD  25351.25001157 -.01761578  00000+0 -12131-1 0  9992
2 66875  43.0007  94.4526 0001214 279.8148 147.5975 15.76664456  2151
STARLINK-35702          
1 66876U 25281AE  25351.25001157 -.01625840  00000+0 -11028-1 0  9998
2 66876  43.0007  94.4637 0001875 267.8253 155.4645 15.76760828  2154
STARLINK-35866          
1 66878U 25283A   25351.25001157 -.01242268  00000+0 -64388-2 0  9999
2 66878  53.1560  51.1343 0001039  73.8135   9.6166 15.82974039  3159
STARLINK-35749          
1 66879U 25283B   25351.25001157 -.01254946  00000+0 -65229-2 0  9991
2 66879  53.1557  51.1234 0000943  78.4037  10.1464 15.82943741  3154
STARLINK-35844          
1 66880U 25283C   25351.25001157 -.01249306  00000+0 -64826-2 0  9999
2 66880  53.1561  51.1295 0000983  80.6760   5.2075 15.82966467  3153
STARLINK-35860          
1 66881U 25283D   25351.25001157 -.01262534  00000+0 -65663-2 0  9998
2 66881  53.1557  51.1185 0001100  70.9657  19.7703 15.82946081  3154
STARLINK-35912          
1 66882U 25283E   25351.25001157 -.01283742  00000+0 -66913-2 0  9992
2 66882  53.1560  51.1142 0001159  71.5287  21.6256 15.82945791  3154
STARLINK-35947          
1 66883U 25283F   25351.25001157 -.01317111  00000+0 -68912-2 0  9992
2 66883  53.1559  51.1090 0001041  79.2993  16.4063 15.82942249  3203
STARLINK-36057          
1 66884U 25283G   25351.25001157 -.01374050  00000+0 -72408-2 0  9993
2 66884  53.1557  51.0980 0001047  71.2062  29.5348 15.82919930  3150
STARLINK-35954          
1 66885U 25283H   25351.25001157 -.01352935  00000+0 -71073-2 0  9999
2 66885  53.1556  51.1032 0001013  74.0452  24.1804 15.82938124  3150
